NORAD_CAT_ID,OBJECT_NAME,OBJECT_TYPE,EPOCH,MEAN_MOTION,ECCENTRICITY,INCLINATION,RA_OF_ASC_NODE,ARG_OF_PERICENTER,MEAN_ANOMALY,BSTAR,MEAN_MOTION_DOT,MEAN_MOTION_DDOT,TLE_LINE0,TLE_LINE1,TLE_LINE2,SEMIMAJOR_AXIS,PERIOD,APOGEE,PERIGEE,DECAYED
51886.0,STARLINK-3565,PAYLOAD,2022-03-26 20:00:01,15.73337222,0.0001051,53.2177,29.1785,55.6456,231.0038,-0.0041673,-0.00551868,0.0,0 STARLINK-3565,1 51886U 22022AL  22085.83334491 -.00551868  00000-0 -41673-2 0  9996,2 51886  53.2177  29.1785 0001051  55.6456 231.0038 15.73337222  4876,6727.504,91.525,350.076,348.662,0.0
51886.0,STARLINK-3565,PAYLOAD,2022-03-26 22:00:00,15.73092933,9.12e-05,53.2178,28.7654,56.3632,342.5711,-0.0011194,-0.00154159,0.0,0 STARLINK-3565,1 51886U 22022AL  22085.91667824 -.00154159  00000-0 -11194-2 0  9991,2 51886  53.2178  28.7654 0000912  56.3632 342.5711 15.73092933  3700,6728.2,91.539,350.67900000000014,349.452,0.0
51886.0,STARLINK-3565,PAYLOAD,2022-03-27 06:00:00,15.73209137,0.0001304,53.2185,27.1267,47.1531,80.6805,-8.8428e-06,-1.861e-05,0.0,0 STARLINK-3565,1 51886U 22022AL  22086.25001157 -.00001861  00000-0 -88428-5 0  9998,2 51886  53.2185  27.1267 0001304  47.1531  80.6805 15.73209137  4939,6727.869000000002,91.533,350.611,348.857,0.0
51886.0,STARLINK-3565,PAYLOAD,2022-03-27 14:00:01,15.73213327,0.0001056,53.2183,25.4753,52.2626,164.5373,0.0004276,0.00059853,0.0,0 STARLINK-3565,1 51886U 22022AL  22086.58334491  .00059853  00000-0  42760-3 0  9993,2 51886  53.2183  25.4753 0001056  52.2626 164.5373 15.73213327  4998,6727.857,91.532,350.43300000000005,349.01199999999994,0.0
51886.0,STARLINK-3565,PAYLOAD,2022-03-27 22:00:01,15.73299267,0.0001077,53.2184,23.8259,59.0563,246.763,-0.00063061,-0.00088567,0.0,0 STARLINK-3565,1 51886U 22022AL  22086.91668981 -.00088567  00000-0 -63061-3 0  9997,2 51886  53.2184  23.8259 0001077  59.0563 246.7630 15.73299267  3704,6727.611999999999,91.527,350.202,348.75300000000016,0.0
51886.0,STARLINK-3565,PAYLOAD,2022-03-28 06:00:00,15.73229155,0.0001229,53.2183,22.1782,51.098,343.6802,-0.00021093,-0.00030153,0.0,0 STARLINK-3565,1 51886U 22022AL  22087.25001157 -.00030153  00000-0 -21093-3 0  9998,2 51886  53.2183  22.1782 0001229  51.0980 343.6802 15.73229155  5091,6727.812,91.531,350.504,348.85,0.0
51886.0,STARLINK-3565,PAYLOAD,2022-03-28 14:00:01,15.73198834,0.0001036,53.2186,20.5266,58.2978,65.5059,-0.00019642,-0.00028091,0.0,0 STARLINK-3565,1 51886U 22022AL  22087.58335648 -.00028091  00000-0 -19642-3 0  9994,2 51886  53.2186  20.5266 0001036  58.2978  65.5059 15.73198834  3704,6727.898,91.533,350.461,349.066,0.0
51886.0,STARLINK-3565,PAYLOAD,2022-03-28 22:00:00,15.73188172,0.0001062,53.219,18.8774,61.4043,151.2365,0.00011052,0.00014911,0.0,0 STARLINK-3565,1 51886U 22022AL  22087.91667824  .00014911  00000-0  11052-3 0  9996,2 51886  53.2190  18.8774 0001062  61.4043 151.2365 15.73188172  3685,6727.929,91.534,350.5080000000001,349.079,0.0
51886.0,STARLINK-3565,PAYLOAD,2022-03-29 12:00:00,15.73134408,0.000102,53.2187,15.991,54.6504,223.5813,-5.3784e-05,-8.138e-05,0.0,0 STARLINK-3565,1 51886U 22022AL  22088.50001157 -.00008138  00000-0 -53784-4 0  9998,2 51886  53.2187  15.9910 0001020  54.6504 223.5813 15.73134408  5294,6728.081999999999,91.537,350.6330000000001,349.261,0.0
51886.0,STARLINK-3565,PAYLOAD,2022-03-29 14:00:01,15.73092489,8.75e-05,53.2189,15.5783,55.0961,335.3596,0.00061098,0.00085608,0.0,0 STARLINK-3565,1 51886U 22022AL  22088.58334491  .00085608  00000-0  61098-3 0  9997,2 51886  53.2189  15.5783 0000875  55.0961 335.3596 15.73092489  3660,6728.2019999999975,91.539,350.655,349.478,0.0
51886.0,STARLINK-3565,PAYLOAD,2022-03-29 22:00:00,15.73169806,9.24e-05,53.2188,13.9297,57.8228,61.4618,0.00024178,0.00033403,0.0,0 STARLINK-3565,1 51886U 22022AL  22088.91667824  .00033403  00000-0  24178-3 0  9997,2 51886  53.2188  13.9297 0000924  57.8228  61.4618 15.73169806  3695,6727.981,91.535,350.468,349.225,0.0
51886.0,STARLINK-3565,PAYLOAD,2022-03-30 12:00:00,15.73230073,0.0001138,53.2189,11.0432,62.4998,122.41,-0.00056503,-0.00079274,0.0,0 STARLINK-3565,1 51886U 22022AL  22089.50001157 -.00079274  00000-0 -56503-3 0  9999,2 51886  53.2189  11.0432 0001138  62.4998 122.4100 15.73230073  5455,6727.809,91.531,350.44,348.909,0.0
51886.0,STARLINK-3565,PAYLOAD,2022-03-30 14:00:01,15.73176854,0.0001189,53.219,10.6303,68.1397,229.0745,-8.1479e-05,-0.00012027,0.0,0 STARLINK-3565,1 51886U 22022AL  22089.58335648 -.00012027  00000-0 -81479-4 0  9996,2 51886  53.2190  10.6303 0001189  68.1397 229.0745 15.73176854  3678,6727.9609999999975,91.535,350.626,349.026,0.0
51886.0,STARLINK-3565,PAYLOAD,2022-03-30 22:00:00,15.73182851,0.0001335,53.2193,8.9817,69.6789,316.3594,0.00019874,0.00027342,0.0,0 STARLINK-3565,1 51886U 22022AL  22089.91667824  .00027342  00000-0  19874-3 0  9990,2 51886  53.2193   8.9817 0001335  69.6789 316.3594 15.73182851  3727,6727.944,91.534,350.707,348.911,0.0
51886.0,STARLINK-3565,PAYLOAD,2022-03-31 06:00:00,15.73222744,0.0001333,53.219,7.3338,60.1157,54.85,-0.00013099,-0.0001898,0.0,0 STARLINK-3565,1 51886U 22022AL  22090.25001157 -.00018980  00000-0 -13099-3 0  9993,2 51886  53.2190   7.3338 0001333  60.1157  54.8500 15.73222744  5569,6727.83,91.532,350.592,348.7990000000001,0.0
51886.0,STARLINK-3565,PAYLOAD,2022-03-31 14:00:01,15.73159699,0.0001161,53.219,5.6823,69.2688,134.6561,0.00039864,0.000556,0.0,0 STARLINK-3565,1 51886U 22022AL  22090.58334491  .00055600  00000-0  39864-3 0  9995,2 51886  53.2190   5.6823 0001161  69.2688 134.6561 15.73159699  3691,6728.01,91.536,350.656,349.094,0.0
51886.0,STARLINK-3565,PAYLOAD,2022-03-31 22:00:00,15.73224163,0.0001223,53.2189,4.034,70.6655,222.1674,0.00030807,0.00042881,0.0,0 STARLINK-3565,1 51886U 22022AL  22090.91667824  .00042881  00000-0  30807-3 0  9996,2 51886  53.2189   4.0340 0001223  70.6655 222.1674 15.73224163  3692,6727.826,91.532,350.514,348.86800000000005,0.0
51886.0,STARLINK-3565,PAYLOAD,2022-04-01 06:00:00,15.73287988,0.0001159,53.2184,2.3858,59.1742,322.6584,-0.00016047,-0.00023164,0.0,0 STARLINK-3565,1 51886U 22022AL  22091.25001157 -.00023164  00000-0 -16047-3 0  9990,2 51886  53.2184   2.3858 0001159  59.1742 322.6584 15.73287988  5725,6727.644,91.528,350.289,348.73,0.0
51886.0,STARLINK-3565,PAYLOAD,2022-04-01 14:00:01,15.7322958,9.68e-05,53.2187,0.7341,73.5584,37.2913,-0.00022186,-0.00031677,0.0,0 STARLINK-3565,1 51886U 22022AL  22091.58334491 -.00031677  00000-0 -22186-3 0  9995,2 51886  53.2187   0.7341 0000968  73.5584  37.2913 15.73229580  5772,6727.811,91.531,350.327,349.025,0.0
51886.0,STARLINK-3565,PAYLOAD,2022-04-01 22:00:00,15.73210784,0.0001059,53.2189,359.0857,69.9906,129.7923,-0.00073479,-0.00102539,0.0,0 STARLINK-3565,1 51886U 22022AL  22091.91667824 -.00102539  00000-0 -73479-3 0  9998,2 51886  53.2189 359.0857 0001059  69.9906 129.7923 15.73210784  3676,6727.864000000001,91.533,350.44199999999995,349.017,0.0
51886.0,STARLINK-3565,PAYLOAD,2022-04-02 06:00:00,15.73103743,0.000105,53.2179,357.4324,57.122,231.5683,0.00052124,0.00072866,0.0,0 STARLINK-3565,1 51886U 22022AL  22092.25001157  .00072866  00000-0  52124-3 0  9998,2 51886  53.2179 357.4324 0001050  57.1220 231.5683 15.73103743  5881,6728.17,91.539,350.741,349.32800000000015,0.0
51886.0,STARLINK-3565,PAYLOAD,2022-04-02 14:00:01,15.73180594,9.49e-05,53.2185,355.7859,70.5914,307.0787,0.00013466,0.00018304,0.0,0 STARLINK-3565,1 51886U 22022AL  22092.58335648  .00018304  00000-0  13466-3 0  9992,2 51886  53.2185 355.7859 0000949  70.5914 307.0787 15.73180594  5936,6727.951,91.534,350.454,349.177,0.0
51886.0,STARLINK-3565,PAYLOAD,2022-04-02 22:00:01,15.73202938,0.0001195,53.2182,354.13800000000015,71.9729,34.6421,-0.00057607,-0.00080705,0.0,0 STARLINK-3565,1 51886U 22022AL  22092.91668981 -.00080705  00000-0 -57607-3 0  9999,2 51886  53.2182 354.1380 0001195  71.9729  34.6421 15.73202938  3694,6727.887,91.533,350.556,348.9480000000001,0.0
51886.0,STARLINK-3565,PAYLOAD,2022-04-03 04:00:00,15.73130997,0.0001250999999999,53.218,352.9021,67.1348,16.1013,0.00019594,0.00026886,0.0,0 STARLINK-3565,1 51886U 22022AL  22093.16667824  .00026886  00000-0  19594-3 0  9993,2 51886  53.2180 352.9021 0001251  67.1348  16.1013 15.73130997  6024,6728.092,91.537,350.7990000000001,349.115,0.0
51886.0,STARLINK-3565,PAYLOAD,2022-04-03 22:00:00,15.73142893,0.00013,53.2182,349.1901,75.142,298.0231,0.00025381,0.00035062,0.0,0 STARLINK-3565,1 51886U 22022AL  22093.91667824  .00035062  00000-0  25381-3 0  9993,2 51886  53.2182 349.1901 0001300  75.1420 298.0231 15.73142893  6140,6728.058000000001,91.537,350.798,349.048,0.0
51886.0,STARLINK-3565,PAYLOAD,2022-04-04 14:00:01,15.73149268,9.24e-05,53.2176,345.8899,79.2125,111.7549,0.00084604,0.00119558,0.0,0 STARLINK-3565,1 51886U 22022AL  22094.58334491  .00119558  00000-0  84604-3 0  9994,2 51886  53.2176 345.8899 0000924  79.2125 111.7549 15.73149268  3705,6728.04,91.536,350.526,349.283,0.0
51886.0,STARLINK-3565,PAYLOAD,2022-04-04 22:00:00,15.73237067,0.0001039,53.2174,344.2422,70.3766,209.5163,0.00037031,0.00051753,0.0,0 STARLINK-3565,1 51886U 22022AL  22094.91667824  .00051753  00000-0  37031-3 0  9994,2 51886  53.2174 344.2422 0001039  70.3766 209.5163 15.73237067  6301,6727.7890000000025,91.531,350.35400000000016,348.955,0.0
51886.0,STARLINK-3565,PAYLOAD,2022-04-05 14:00:01,15.73225206,0.0001128,53.2172,340.941,84.8356,13.1394,-0.00018601,-0.0002667,0.0,0 STARLINK-3565,1 51886U 22022AL  22095.58335648 -.00026670  00000-0 -18601-3 0  9998,2 51886  53.2172 340.9410 0001128  84.8356  13.1394 15.73225206  3701,6727.823,91.532,350.44699999999995,348.92900000000014,0.0
51886.0,STARLINK-3565,PAYLOAD,2022-04-05 16:00:00,15.73253681,8.35e-05,53.2174,340.5288,86.061,124.0662,5.7289e-06,1.86e-06,0.0,0 STARLINK-3565,1 51886U 22022AL  22095.66667824  .00000186  00000-0  57289-5 0  9990,2 51886  53.2174 340.5288 0000835  86.0610 124.0662 15.73253681  6423,6727.7419999999975,91.53,350.1690000000001,349.045,0.0
